[{"OBJECT_NAME":"TIANMU-1 09","OBJECT_ID":"2023-101C","EPOCH":"2026-03-09T22:17:34.703232","MEAN_MOTION":15.29080822,"ECCENTRICITY":0.00049013,"INCLINATION":97.267,"RA_OF_ASC_NODE":121.1263,"ARG_OF_PERICENTER":139.4293,"MEAN_ANOMALY":220.7314,"EPHEMERIS_TYPE":0,"CLASSIFICATION_TYPE":"U","NORAD_CAT_ID":57401,"ELEMENT_SET_NO":999,"REV_AT_EPOCH":14647,"BSTAR":0.00030540035,"MEAN_MOTION_DOT":8.553e-5,"MEAN_MOTION_DDOT":0},{"OBJECT_NAME":"STARLINK-31562","OBJECT_ID":"2024-057W","EPOCH":"2026-03-09T09:54:20.456928","MEAN_MOTION":15.27579476,"ECCENTRICITY":8.827e-5,"INCLINATION":43.0007,"RA_OF_ASC_NODE":203.6196,"ARG_OF_PERICENTER":223.3898,"MEAN_ANOMALY":136.6884,"EPHEMERIS_TYPE":0,"CLASSIFICATION_TYPE":"U","NORAD_CAT_ID":59340,"ELEMENT_SET_NO":999,"REV_AT_EPOCH":10962,"BSTAR":-3.1737791e-5,"MEAN_MOTION_DOT":-1.135e-5,"MEAN_MOTION_DDOT":0}]
